"spkid","full_name","pdes","name","prefix","neo","pha","sats","H","G","M1","M2","K1","K2","PC","diameter","extent","albedo","rot_per","GM","BV","UB","IR","spec_B","spec_T","H_sigma","diameter_sigma","orbit_id","epoch","epoch_mjd","epoch_cal","equinox","e","a","q","i","om","w","ma","ad","n","tp","tp_cal","per","per_y","moid","moid_ld","moid_jup","t_jup","sigma_e","sigma_a","sigma_q","sigma_i","sigma_om","sigma_w","sigma_ma","sigma_ad","sigma_n","sigma_tp","sigma_per","class","producer","data_arc","first_obs","last_obs","n_obs_used","n_del_obs_used","n_dop_obs_used","condition_code","rms","two_body","A1","A1_sigma","A2","A2_sigma","A3","A3_sigma","DT","DT_sigma"
3564147,"       (2004 HD79)","2004 HD79",,,N,N,1,5.7,,,,,,,,,,7,,,,,,,,,4,2460200.5,60200,2023-09-13.0000000,J2000,.03612008944317487,45.77517667630883,44.12177320048342,1.304908393104443,159.3397669650928,232.9234785475634,220.5463939164007,47.42858015213424,.003182431247947172,2504020.333083135381,2143-09-03.8330831,113121.0612113673,309.708586478761,43.1272,16783.812424,39.1566,6.040,.00032966,.014148,.02805,.00018977,.02472,.5492,.59925,.014659,1.4754E-6,195.94,52.443,TNO,"Otto Matic",3336,2004-04-22,2013-06-10,24,,,4,.2782,,,,,,,,,
3564148,"       (2004 HE79)","2004 HE79",,,N,N,0,7.3,,,,,,,,,,,,,,,,,,,6,2460200.5,60200,2023-09-13.0000000,J2000,.09400683839527925,44.1417993742402,39.99216837398917,3.095640708567162,62.85007035874847,163.0463624370654,23.86459204542621,48.29143037449123,.003360694421376702,2453099.410447308645,2004-04-03.9104473,107120.7181795858,293.280542586135,38.9822,15170.702774,34.5649,5.909,.00030634,.020408,.0050475,.00056221,.0027688,.1558,.14276,.022327,2.3307E-6,38.192,74.289,TNO,"Otto Matic",4008,2004-04-24,2015-04-15,19,,,4,.38624,,,,,,,,,
3564150,"       (2004 HG79)","2004 HG79",,,N,N,0,6.9,,,,,,,,,,,,,,,,,,,6,2460200.5,60200,2023-09-13.0000000,J2000,.01991464473399275,44.04208062146396,43.16499823254164,3.606306120384267,56.35507187663471,193.5704786114951,2.060583527665445,44.91916301038628,.003372114654292698,2459589.434321956602,2022-01-09.9343220,106757.9358672519,292.287298746754,42.1503,16403.632251,37.7938,5.924,.00017675,.010186,.0031111,.00066265,.0014892,.46793,.44887,.010389,1.1699E-6,133.16,37.038,TNO,"Otto Matic",4008,2004-04-24,2015-04-15,20,,,4,.27714,,,,,,,,,
3564151,"       (2004 HH79)","2004 HH79",,,N,N,0,7.0,,,,,,,,,,,,,,,,,,,8,2460200.5,60200,2023-09-13.0000000,J2000,.0601575886934634,43.1304812515957,40.53585550031107,8.632522810393267,222.4522750652218,102.6040207722803,296.8574311989486,45.72510700288033,.003479586344671657,2478347.073341323347,2073-05-19.5733413,103460.5738556462,283.25961356782,39.5347,15385.719199,35.568,5.803,.00010568,.011176,.0092385,.00038531,.00056276,.18082,.17732,.011848,1.3525E-6,43.911,40.213,TNO,"Otto Matic",5491,2004-04-24,2019-05-07,22,,,4,.19108,,,,,,,,,
3564153,"       (2004 HK79)","2004 HK79",,,N,N,1,6.9,,,,,,,,,,,,,,,,,,,7,2460200.5,60200,2023-09-13.0000000,J2000,.0752766632993024,43.67659519035752,40.38876684015305,1.948298380105628,68.97781237588933,184.495158263696,343.3723511626983,46.964423540562,.003414529825038326,2465070.174505512653,2037-01-11.6745055,105431.7925004387,288.656516086074,39.3735,15322.984995,35.0462,5.894,.00017948,.016757,.0095136,.00025438,.005944,.22497,.19691,.018018,1.965E-6,55.114,60.674,TNO,"Otto Matic",4017,2004-04-26,2015-04-26,22,,,4,.37455,,,,,,,,,
3564154,"       (2004 HL79)","2004 HL79",,,N,N,0,7.61,,,,,,,,,,,,,,,,,,,6,2460200.5,60200,2023-09-13.0000000,J2000,.07127409021704839,41.90621119303065,38.9193841158039,16.80335706863811,202.5985044407043,310.0456205527656,73.95682073974025,44.8930382702574,.003633176344619733,2439844.532184327967,1967-12-20.0321843,99086.85014233171,271.285010656623,37.9531,14770.207927,33.6662,5.544,.00011574,.013491,.0085529,.00046172,.00024319,.17568,.18147,.014452,1.7544E-6,40.183,47.848,TNO,"Otto Matic",6989,2004-04-26,2023-06-15,19,,,4,.32046,,,,,,,,,
3566485,"       (2004 HM79)","2004 HM79",,,N,N,0,7.5,,,,,,,,,,,,,,,,,,,9,2460200.5,60200,2023-09-13.0000000,J2000,.08320931078381835,36.28353971400458,33.26441138160495,1.1752544347933,196.0535147634307,242.1938896211555,152.3434974216183,39.3026680464042,.004509616392720089,2426418.580618221167,1931-03-18.0806182,79829.40646152321,218.56100331697,32.2789,12561.979513,28.1656,5.405,.00013638,.0078474,.011586,.0002902,.0043266,.09891,.11223,.0085004,1.463E-6,16.678,25.898,TNO,"Otto Matic",4043,2004-04-26,2015-05-22,25,,,4,.3145,,,,,,,,,
3573161,"       (2004 HO79)","2004 HO79",,,N,N,0,7.3,,,,,,,,,,,,,,,,,,,4,2460200.5,60200,2023-09-13.0000000,J2000,.4085860187377453,54.86919752044285,32.45041055423014,5.638655392367745,53.70760401406894,119.4657543228741,40.99326050854444,77.28798448665555,.002424996751017685,2443296.040028521264,1977-06-01.5400285,148453.8071438326,406.444372741499,31.4584,12242.665528,27.0167,5.994,.00037942,.0264,.0089912,.00072153,.0003898,.035181,.031948,.037187,1.7502E-6,3.2051,107.14,TNO,"Otto Matic",1476,2004-04-22,2008-05-07,22,,,4,.27651,,,,,,,,,
3573844,"       (2004 HQ79)","2004 HQ79",,,N,N,0,7.8,,,,,,,,,,,,,,,,,,,8,2460200.5,60200,2023-09-13.0000000,J2000,.4178168879966756,62.78230705400804,36.55079889945067,6.48713447841956,37.31027665661052,173.3880458293714,13.48390697897444,89.01381520856542,.001981290549251493,2453394.881821450424,2005-01-24.3818215,181699.751273736,497.466807046505,35.5446,13832.891982,31.0973,6.354,.00023462,.028519,.0019192,.00025662,.00031228,.01047,.010088,.040435,1.35E-6,1.9699,123.81,TNO,"Otto Matic",4045,2004-04-26,2015-05-24,21,,,3,.23297,,,,,,,,,
3463399,"       (2004 KV18)","2004 KV18",,,N,N,0,8.74,,,,,,,,,,,,,,,,,,,6,2460200.5,60200,2023-09-13.0000000,J2000,.183438079505056,30.14824657287429,24.61791012110134,13.61029861233116,235.7034843629723,294.4970083485688,84.88134876851367,35.67858302464724,.005954029554258377,2445944.381854297188,1984-08-31.8818543,60463.25378793672,165.539366975871,23.6467,9202.586239,19.3622,4.772,8.108E-5,.0074324,.003816,.00021081,.00016132,.050334,.062096,.0087957,2.2017E-6,5.1588,22.359,TNO,"Otto Matic",6277,2004-05-24,2021-07-31,25,,,4,.19671,,,,,,,,,
3485889,"       (2004 KZ18)","2004 KZ18",,,N,N,0,8.4,,,,,,,,,,,,,,,,,,,6,2460200.5,60200,2023-09-13.0000000,J2000,.3797609509729568,55.27280791392778,34.282353817589,22.68378834803292,232.213529523397,11.36088506543839,12.08433870427038,76.26326201026656,.002398483760352261,2455162.175828692883,2009-11-26.6758287,150094.8248851714,410.937234456321,33.2718,12948.386406,28.9146,5.658,.00036924,.037686,.0029681,.0003644,.0001096,.01657,.011148,.051997,2.453E-6,2.9001,153.51,TNO,"Otto Matic",4036,2004-05-24,2015-06-12,18,,,4,.37321,,,,,,,,,
3563285,"       (2004 KB19)","2004 KB19",,,N,N,1,7.4,,,,,,,,,,,,,,,,,,,6,2460200.5,60200,2023-09-13.0000000,J2000,.2204431187831025,39.43128094480314,30.73892639571801,17.19265497186464,44.06575818370078,286.9572471255001,310.2222878185716,48.12363549388827,.003980546902387201,2472705.744480746063,2057-12-08.2444807,90439.83372840098,247.610769961399,29.7706,11585.824402,25.9383,5.262,.00011436,.017006,.012194,.00058409,.00024426,.081523,.070985,.020754,2.575E-6,9.7858,58.506,TNO,"Otto Matic",3978,2004-05-24,2015-04-15,19,,,4,.25763,,,,,,,,,
3563286,"       (2004 KC19)","2004 KC19",,,N,N,0,8.2,,,,,,,,,,,,,,,,,,,5,2460200.5,60200,2023-09-13.0000000,J2000,.2343777296018626,39.21062918994377,30.02053094414422,5.645747454742678,240.68904263,7.205839765143768,18.14829180177218,48.40072743574331,.004014193996275377,2455679.469920583982,2011-04-27.9699206,89681.76434273747,245.535289097159,29.0062,11288.342854,24.661,5.444,.00060281,.037006,.004698,.00033591,.00048165,.021537,.014734,.045679,5.6827E-6,3.2591,126.96,TNO,"Otto Matic",4388,2004-05-24,2016-05-29,19,,,4,.13821,,,,,,,,,
3563640,"       (2004 KD19)","2004 KD19",,,N,N,0,7.4,,,,,,,,,,,,,,,,,,,4,2460200.5,60200,2023-09-13.0000000,J2000,.01983258849096772,38.16958928876254,37.41258753152926,2.127593902740713,4.856205569106011,62.76406806602525,195.3427157766215,38.92659104599582,.004179533817571778,2499596.588513776151,2131-07-25.0885138,86134.00817250775,235.822062073943,36.426,14175.90642,32.3343,5.548,.00043406,.020931,.036553,.0011674,.037901,2.0778,2.1654,.021346,3.4379E-6,524.71,70.85,TNO,"Otto Matic",1442,2004-05-24,2008-05-05,14,,,5,.16568,,,,,,,,,
3564155,"       (2004 KE19)","2004 KE19",,,N,N,1,6.4,,,,,,,,,,,,,,,,,,,7,2460200.5,60200,2023-09-13.0000000,J2000,.04647091689158549,44.19903215760176,42.14506260751734,1.179163495758151,292.4042689838093,255.5452028332159,59.90703080425271,46.2530017076862,.003354168952119453,2442340.030936150881,1974-10-19.5309362,107329.119414966,293.85111407246,41.1453,16012.516401,36.6879,5.939,.00021634,.018772,.0085691,9.2308E-5,.0055502,.28693,.29587,.019644,2.1368E-6,76.91,68.376,TNO,"Otto Matic",5874,2004-05-24,2020-06-23,25,,,4,.23514,,,,,,,,,
3564156,"       (2004 KF19)","2004 KF19",,,N,N,0,6.9,,,,,,,,,,,,,,,,,,,5,2460200.5,60200,2023-09-13.0000000,J2000,.05996217630677514,43.96913611692553,41.33265102502585,.1088694075283749,327.2110325612126,279.8874449966103,7.496627357345102,46.60562120882521,.003380509607374368,2457982.897263125156,2017-08-17.3972631,106492.819666799,291.561450148663,40.3183,15690.672811,35.9658,5.922,.00030928,.018446,.0038589,6.9393E-5,.28716,.30496,.090404,.019552,2.1273E-6,26.821,67.014,TNO,"Otto Matic",4398,2004-05-24,2016-06-08,22,,,4,.29426,,,,,,,,,
3564157,"       (2004 KG19)","2004 KG19",,,N,N,0,7.4,,,,,,,,,,,,,,,,,,,6,2460200.5,60200,2023-09-13.0000000,J2000,.01831178434917832,43.13319672997208,42.34335093316215,.9632116053787174,298.8868532998621,270.0730805708404,43.5624376867224,43.92304252678201,.003479257760420562,2447679.887649204607,1989-06-02.3876492,103470.3447658573,283.286364862032,41.3376,16087.353792,36.8901,5.877,.00044087,.027299,.0084315,.00024294,.036396,.74233,.74871,.027799,3.3031E-6,205.13,98.23,TNO,"Otto Matic",3978,2004-05-24,2015-04-15,19,,,4,.24662,,,,,,,,,
